{
  "norad_id": 65848,
  "name": "STARLINK-35308",
  "history": [
    {
      "epoch": "2026-03-28T22:48:58.034016Z",
      "apogee_km": 475.9723851778808,
      "perigee_km": 474.4987730059238,
      "latitude_deg": 6.472752418381708e-06,
      "longitude_deg": -169.82206429937582,
      "height_km": 476.1456884618406,
      "semi_major_axis_km": 6853.372579091902,
      "eccentricity": 0.00010751,
      "inclination_deg": 53.1613,
      "raan_deg": 358.7835,
      "arg_perigee_deg": 90.9047,
      "mean_anomaly_deg": 269.2077,
      "mean_motion_rev_day": 15.30193131
    },
    {
      "epoch": "2026-03-29T03:31:07.654368Z",
      "apogee_km": 475.98261871854083,
      "perigee_km": 474.3734603472585,
      "latitude_deg": 1.686707544659309e-05,
      "longitude_deg": 118.53502681031321,
      "height_km": 475.92387537534916,
      "semi_major_axis_km": 6853.315039532899,
      "eccentricity": 0.0001174,
      "inclination_deg": 53.161,
      "raan_deg": 357.8738,
      "arg_perigee_deg": 79.0732,
      "mean_anomaly_deg": 281.0401,
      "mean_motion_rev_day": 15.30212402
    },
    {
      "epoch": "2026-03-30T03:01:55.973856Z",
      "apogee_km": 476.10761628933597,
      "perigee_km": 474.4038628542794,
      "latitude_deg": 1.1704103812593618e-06,
      "longitude_deg": 120.31702256416494,
      "height_km": 475.87072954045084,
      "semi_major_axis_km": 6853.392739571807,
      "eccentricity": 0.0001243,
      "inclination_deg": 53.1615,
      "raan_deg": 353.3228,
      "arg_perigee_deg": 70.5701,
      "mean_anomaly_deg": 289.5434,
      "mean_motion_rev_day": 15.30186379
    },
    {
      "epoch": "2026-03-30T04:35:59.125056Z",
      "apogee_km": 476.0763785488689,
      "perigee_km": 474.3544052268826,
      "latitude_deg": -1.877601360577377e-05,
      "longitude_deg": 96.43620111707448,
      "height_km": 475.85984863693267,
      "semi_major_axis_km": 6853.3523918878755,
      "eccentricity": 0.00012563,
      "inclination_deg": 53.1614,
      "raan_deg": 353.0195,
      "arg_perigee_deg": 72.8508,
      "mean_anomaly_deg": 287.263,
      "mean_motion_rev_day": 15.30199892
    },
    {
      "epoch": "2026-03-30T10:52:12.303552Z",
      "apogee_km": 476.51845462258643,
      "perigee_km": 473.91418036193954,
      "latitude_deg": -1.2000523190258807e-05,
      "longitude_deg": 0.9103828726241613,
      "height_km": 475.82972491188127,
      "semi_major_axis_km": 6853.353317492263,
      "eccentricity": 0.00019,
      "inclination_deg": 53.1619,
      "raan_deg": 351.8061,
      "arg_perigee_deg": 77.3999,
      "mean_anomaly_deg": 282.7214,
      "mean_motion_rev_day": 15.30199582
    },
    {
      "epoch": "2026-03-30T23:24:37.511424Z",
      "apogee_km": 476.07454940912794,
      "perigee_km": 474.2906303198861,
      "latitude_deg": -4.183463274498539e-05,
      "longitude_deg": 169.86351516985704,
      "height_km": 475.82444948283637,
      "semi_major_axis_km": 6853.319589864507,
      "eccentricity": 0.00013015,
      "inclination_deg": 53.1611,
      "raan_deg": 349.3793,
      "arg_perigee_deg": 73.2955,
      "mean_anomaly_deg": 286.8188,
      "mean_motion_rev_day": 15.30210878
    },
    {
      "epoch": "2026-03-31T21:21:22.321152Z",
      "apogee_km": 476.10886299082085,
      "perigee_km": 474.332472683318,
      "latitude_deg": 6.169262877206407e-05,
      "longitude_deg": -164.47179480079208,
      "height_km": 476.12273202763015,
      "semi_major_axis_km": 6853.357667837069,
      "eccentricity": 0.0001296,
      "inclination_deg": 53.1603,
      "raan_deg": 345.1319,
      "arg_perigee_deg": 90.2582,
      "mean_anomaly_deg": 269.8568,
      "mean_motion_rev_day": 15.30198125
    },
    {
      "epoch": "2026-04-01T20:52:09.966720Z",
      "apogee_km": 476.1695919721642,
      "perigee_km": 474.24106144142934,
      "latitude_deg": 4.627528018688877e-05,
      "longitude_deg": -162.6861825027885,
      "height_km": 476.1819801517437,
      "semi_major_axis_km": 6853.3423267067965,
      "eccentricity": 0.0001407,
      "inclination_deg": 53.1594,
      "raan_deg": 340.5817,
      "arg_perigee_deg": 94.6894,
      "mean_anomaly_deg": 265.4268,
      "mean_motion_rev_day": 15.30203263
    },
    {
      "epoch": "2026-04-02T15:40:47.867520Z",
      "apogee_km": 475.8571139129426,
      "perigee_km": 474.44053973253904,
      "latitude_deg": 6.902767816307419e-05,
      "longitude_deg": -89.2573058676318,
      "height_km": 476.2066987529346,
      "semi_major_axis_km": 6853.28582682274,
      "eccentricity": 0.00010335,
      "inclination_deg": 53.1589,
      "raan_deg": 336.941,
      "arg_perigee_deg": 103.0194,
      "mean_anomaly_deg": 257.0923,
      "mean_motion_rev_day": 15.30222186
    },
    {
      "epoch": "2026-04-02T21:57:00.494784Z",
      "apogee_km": 475.7518353891992,
      "perigee_km": 474.56539285248255,
      "latitude_deg": -3.8898926268258146e-05,
      "longitude_deg": 175.21909339548716,
      "height_km": 476.00363120825966,
      "semi_major_axis_km": 6853.295614120841,
      "eccentricity": 8.656e-05,
      "inclination_deg": 53.1586,
      "raan_deg": 335.7276,
      "arg_perigee_deg": 84.8287,
      "mean_anomaly_deg": 275.2812,
      "mean_motion_rev_day": 15.30218908
    },
    {
      "epoch": "2026-04-03T15:11:35.983104Z",
      "apogee_km": 476.2400710580132,
      "perigee_km": 474.18680726644016,
      "latitude_deg": -1.5615945882283637e-05,
      "longitude_deg": -87.47790994449741,
      "height_km": 477.0130656706635,
      "semi_major_axis_km": 6853.350439162226,
      "eccentricity": 0.0001498,
      "inclination_deg": 53.158,
      "raan_deg": 332.3866,
      "arg_perigee_deg": 151.3627,
      "mean_anomaly_deg": 208.7456,
      "mean_motion_rev_day": 15.30200546
    },
    {
      "epoch": "2026-04-04T20:58:37.023168Z",
      "apogee_km": 475.7553352846344,
      "perigee_km": 474.70402883560655,
      "latitude_deg": 2.8854004006473496e-05,
      "longitude_deg": 178.7848188301783,
      "height_km": 475.91071844222785,
      "semi_major_axis_km": 6853.36668206012,
      "eccentricity": 7.67e-05,
      "inclination_deg": 53.1573,
      "raan_deg": 326.6268,
      "arg_perigee_deg": 65.5571,
      "mean_anomaly_deg": 294.551,
      "mean_motion_rev_day": 15.30195106
    },
    {
      "epoch": "2026-04-05T07:57:00.046656Z",
      "apogee_km": 475.87429464558136,
      "perigee_km": 474.64054658198256,
      "latitude_deg": 1.7026974712695606e-05,
      "longitude_deg": 11.61263045784775,
      "height_km": 476.1390615169955,
      "semi_major_axis_km": 6853.394420613781,
      "eccentricity": 9.001e-05,
      "inclination_deg": 53.1579,
      "raan_deg": 324.5012,
      "arg_perigee_deg": 88.4488,
      "mean_anomaly_deg": 271.6616,
      "mean_motion_rev_day": 15.30185816
    },
    {
      "epoch": "2026-04-05T20:29:25.491264Z",
      "apogee_km": 475.7918622572197,
      "perigee_km": 474.5596366248692,
      "latitude_deg": 4.553587354409519e-05,
      "longitude_deg": -179.4357844153815,
      "height_km": 475.94629936429635,
      "semi_major_axis_km": 6853.312749441044,
      "eccentricity": 8.99e-05,
      "inclination_deg": 53.1571,
      "raan_deg": 322.0738,
      "arg_perigee_deg": 78.034,
      "mean_anomaly_deg": 282.0762,
      "mean_motion_rev_day": 15.30213169
    },
    {
      "epoch": "2026-04-06T01:11:34.508544Z",
      "apogee_km": 475.71165337224556,
      "perigee_km": 474.4691632431204,
      "latitude_deg": 6.381880299274077e-05,
      "longitude_deg": 108.9243318114056,
      "height_km": 476.0427665887282,
      "semi_major_axis_km": 6853.227408307683,
      "eccentricity": 9.065e-05,
      "inclination_deg": 53.1578,
      "raan_deg": 321.1646,
      "arg_perigee_deg": 94.9884,
      "mean_anomaly_deg": 265.1221,
      "mean_motion_rev_day": 15.30241752
    },
    {
      "epoch": "2026-04-07T21:05:04.121952Z",
      "apogee_km": 475.96459564413453,
      "perigee_km": 474.5199032983455,
      "latitude_deg": -2.2164569626428383e-05,
      "longitude_deg": 160.25161132305465,
      "height_km": 476.10028791031306,
      "semi_major_axis_km": 6853.37924947124,
      "eccentricity": 0.0001054,
      "inclination_deg": 53.1582,
      "raan_deg": 312.6679,
      "arg_perigee_deg": 86.8146,
      "mean_anomaly_deg": 273.2975,
      "mean_motion_rev_day": 15.30190897
    },
    {
      "epoch": "2026-04-08T14:19:39.171360Z",
      "apogee_km": 476.00767806212934,
      "perigee_km": 474.3539724708926,
      "latitude_deg": -1.6524163491805583e-05,
      "longitude_deg": -102.43917356628754,
      "height_km": 475.99387823502445,
      "semi_major_axis_km": 6853.317825266511,
      "eccentricity": 0.00012065,
      "inclination_deg": 53.1584,
      "raan_deg": 309.3313,
      "arg_perigee_deg": 84.1028,
      "mean_anomaly_deg": 276.011,
      "mean_motion_rev_day": 15.30211469
    },
    {
      "epoch": "2026-04-09T18:32:36.839904Z",
      "apogee_km": 476.0305785159526,
      "perigee_km": 474.32136226113835,
      "latitude_deg": 2.4186065764011995e-05,
      "longitude_deg": -172.29912305256707,
      "height_km": 475.90359356688873,
      "semi_major_axis_km": 6853.312970388545,
      "eccentricity": 0.0001247,
      "inclination_deg": 53.1596,
      "raan_deg": 303.8704,
      "arg_perigee_deg": 78.4933,
      "mean_anomaly_deg": 281.6208,
      "mean_motion_rev_day": 15.30213095
    },
    {
      "epoch": "2026-04-10T13:21:15.102720Z",
      "apogee_km": 476.1148981290107,
      "perigee_km": 474.2672408814715,
      "latitude_deg": -1.4664026325697795e-05,
      "longitude_deg": -98.87140745120357,
      "height_km": 476.0965012560834,
      "semi_major_axis_km": 6853.328069505241,
      "eccentricity": 0.0001348,
      "inclination_deg": 53.1594,
      "raan_deg": 300.2301,
      "arg_perigee_deg": 90.4666,
      "mean_anomaly_deg": 269.6489,
      "mean_motion_rev_day": 15.30208038
    }
  ]
}